[Satellite]
VERSION=1.1
NAME=SPACEBEE-1
NICKNAME=SPACEBEE-1
TLE1=1 43142U 18004AH  20157.72090397  .00003276  00000-0  12231-3 0  9999
TLE2=2 43142  97.4559 232.1026 0009981  92.5222 267.7160 15.28072310133421
STATUS=0
